FLOCK 4Q-9              
1 58322U 23174BU  25109.19753460  .00017738  00000+0  58974-3 0  9990
2 58322  97.4180 188.1775 0009159 214.4997 145.5651 15.31197687 80360
FLOCK 4Q-4              
1 58327U 23174BZ  25110.15263531  .00019876  00000+0  65864-3 0  9999
2 58327  97.4150 188.7174 0007797 230.0375 130.0182 15.31292938 80498
FLOCK 4Q-13             
1 58328U 23174CA  25110.20740432  .00022680  00000+0  71508-3 0  9995
2 58328  97.4261 189.6433 0008879 228.0447 132.0039 15.32854878 80524
FLOCK 4Q-21             
1 58329U 23174CB  25110.15837228  .00028467  00000+0  81254-3 0  9998
2 58329  97.4212 190.2237 0007869 231.2360 128.8181 15.35966354 80560
FLOCK 4BE-18            
1 60480U 24149N   25109.18258403  .00015685  00000+0  59424-3 0  9997
2 60480  97.4078 187.7014 0003839 334.1511  25.9535 15.26981891 37328
FLOCK 4BE-7             
1 60481U 24149P   25110.20812389  .00016683  00000+0  64529-3 0  9993
2 60481  97.4105 188.7220 0002796 333.8554  26.2543 15.26280649 37476
FLOCK 4BE-16            
1 60483U 24149R   25109.76633660  .00016118  00000+0  61118-3 0  9991
2 60483  97.4099 188.3518 0002370 336.8309  23.2823 15.26950076 37415
FLOCK 4BE-26            
1 60484U 24149S   25109.65097767  .00013901  00000+0  53282-3 0  9992
2 60484  97.4072 188.1071 0003098 337.2875  22.8226 15.26623635 37397
FLOCK 4BE-36            
1 60486U 24149U   25109.19042093  .00016147  00000+0  59916-3 0  9990
2 60486  97.4077 187.8283 0004153 346.8791  13.2340 15.27662023 37331
FLOCK 4BE-25            
1 60487U 24149V   25109.20520939  .00013547  00000+0  52464-3 0  9995
2 60487  97.4127 187.8310 0002059 345.6922  14.4258 15.26289451 37324
FLOCK 4BE-31            
1 60488U 24149W   25110.35682579  .00020350  00000+0  75289-3 0  9993
2 60488  97.4129 189.1864 0002815 342.8262  17.2881 15.27714107 37518
FLOCK 4BE-20            
1 60489U 24149X   25110.21104436  .00015386  00000+0  60154-3 0  9998
2 60489  97.4051 188.5305 0003413 339.2369  20.8730 15.25940000 37478
FLOCK 4BE-23            
1 60490U 24149Y   25109.65345980  .00013029  00000+0  51444-3 0  9991
2 60490  97.4122 188.1237 0003326 347.9186  12.1972 15.25649139 37386
FLOCK 4BE-15            
1 60491U 24149Z   25110.20485708  .00015565  00000+0  58973-3 0  9999
2 60491  97.4058 188.6920 0003622 346.1115  14.0023 15.26980706 37489
FLOCK 4BE-17            
1 60492U 24149AA  25110.19306495  .00016477  00000+0  63555-3 0  9998
2 60492  97.4122 188.8023 0002446 343.5105  16.6054 15.26378361 37470
FLOCK 4BE-22            
1 60494U 24149AC  25110.20548652  .00016389  00000+0  62255-3 0  9993
2 60494  97.4069 188.7406 0004544 351.9101   8.2063 15.26881564 37488
FLOCK 4BE-34            
1 60495U 24149AD  25109.20444437  .00014917  00000+0  55205-3 0  9990
2 60495  97.4115 187.9501 0004027   4.9402 355.1876 15.27767381 37334
FLOCK 4BE-32            
1 60497U 24149AF  25110.22025170  .00017320  00000+0  64910-3 0  9999
2 60497  97.4057 188.8280 0003818 348.5234  11.5918 15.27319068 37494
FLOCK 4BE-30            
1 60499U 24149AH  25109.18281026  .00015238  00000+0  57211-3 0  9990
2 60499  97.4134 188.0187 0003073 358.6920   1.4311 15.27290367 36716
FLOCK 4BE-11            
1 60501U 24149AK  25110.22150550  .00017194  00000+0  64027-3 0  9994
2 60501  97.4051 188.8236 0004111 352.9310   7.1870 15.27530938 37495
FLOCK 4BE-33            
1 60502U 24149AL  25109.18715373  .00013347  00000+0  51838-3 0  9990
2 60502  97.4065 187.6567 0004322   7.6657 352.4646 15.26191410 37323
FLOCK 4BE-10            
1 60503U 24149AM  25110.21710967  .00016791  00000+0  64374-3 0  9996
2 60503  97.4112 188.8993 0002690   5.3881 354.7386 15.26575538 37483
FLOCK 4BE-24            
1 60505U 24149AP  25109.65112174  .00014927  00000+0  55376-3 0  9991
2 60505  97.4057 188.3684 0004389   6.1412 353.9880 15.27686272 37413
TANAGER-1               
1 60507U 24149AR  25110.16171420  .00033303  00000+0  73281-3 0  9994
2 60507  97.4068 193.3026 0010450 251.7355 108.2756 15.43849282 37775
FLOCK 4BE-29            
1 60509U 24149AT  25110.18759261  .00018160  00000+0  65706-3 0  9990
2 60509  97.4131 189.2719 0003346  24.3832 335.7566 15.28470900 37508
FLOCK 4BE-2             
1 60511U 24149AV  25110.20325873  .00020223  00000+0  72086-3 0  9996
2 60511  97.4137 189.4214 0003172  16.9347 343.1999 15.28938733 37511
FLOCK 4BE-13            
1 60512U 24149AW  25110.20401813  .00017947  00000+0  65439-3 0  9999
2 60512  97.4050 188.9819 0004464   2.9837 357.1428 15.28214493 37506
FLOCK 4BE-27            
1 60513U 24149AX  25109.67016442  .00011261  00000+0  44703-3 0  9993
2 60513  97.4145 188.3105 0004680  27.9083 332.2405 15.25500856 37398
FLOCK 4BE-9             
1 60514U 24149AY  25109.20632683  .00016207  00000+0  60915-3 0  9992
2 60514  97.4122 188.0948 0003463  33.5530 326.5927 15.27237850 37347
FLOCK 4BE-8             
1 60515U 24149AZ  25109.17277742  .00014146  00000+0  53774-3 0  9995
2 60515  97.4068 187.8194 0004969  20.2633 339.8802 15.26887791 37338
FLOCK 4BE-6             
1 60516U 24149BA  25109.18796059  .00013567  00000+0  52011-3 0  9993
2 60516  97.4126 187.9891 0004083  30.2501 329.8973 15.26619917 37332
FLOCK 4BE-14            
1 60517U 24149BB  25109.89723256  .00015206  00000+0  57146-3 0  9997
2 60517  97.4054 188.6717 0005244  18.0072 342.1351 15.27250474 37456
FLOCK 4BE-1             
1 60518U 24149BC  25110.37359507  .00017402  00000+0  64055-3 0  9994
2 60518  97.4109 189.4176 0004517  14.8523 345.2848 15.27908862 37538
FLOCK 4BE-28            
1 60519U 24149BD  25110.20726571  .00019162  00000+0  68718-3 0  9991
2 60519  97.4077 189.2192 0005557  15.4676 344.6733 15.28742232 37512
FLOCK 4BE-35            
1 60558U 24149CU  25109.70586146  .00013934  00000+0  53179-3 0  9995
2 60558  97.4105 188.4867 0002853  27.0544 333.0843 15.26768166 37411
FLOCK 4BE-5             
1 60559U 24149CV  25109.18225287  .00013115  00000+0  50282-3 0  9997
2 60559  97.4156 188.0517 0003567  30.4973 329.6472 15.26628870 37330
FLOCK 4BE-12            
1 60560U 24149CW  25110.20638098  .00017658  00000+0  64893-3 0  9991
2 60560  97.4071 189.0386 0004459  18.4102 341.7298 15.27959569 37507
FLOCK 4BE-3             
1 60561U 24149CX  25110.17394437  .00017617  00000+0  65575-3 0  9997
2 60561  97.4047 188.8781 0005061  10.2458 349.8883 15.27536524 37490
FLOCK 4BE-19            
1 60563U 24149CZ  25110.34826689  .00019379  00000+0  69991-3 0  9990
2 60563  97.4072 189.3203 0004928  17.1634 342.9771 15.28509658 37532
